{
  "type": "FeatureCollection",
  "features": [
    {
      "type": "Feature",
      "properties": {
        "norad_id": 66537,
        "name": "STARLINK-35582",
        "group": "last-30-days",
        "lat": -6.440831312815292,
        "lon": -73.28317376678379,
        "alt_km": 354.5001113475719,
        "timestamp": "2025-12-04T23:34:04.491203+00:00",
        "meta_object_name": "STARLINK-35582",
        "meta_object_id": "2025-265X",
        "meta_epoch": "2025-12-04T18:00:02.000160",
        "meta_mean_motion": 15.72752991,
        "meta_eccentricity": 0.0001519,
        "meta_inclination": 43.0004,
        "meta_ra_of_asc_node": 101.1605,
        "meta_arg_of_pericenter": 280.9947,
        "meta_mean_anomaly": 33.792,
        "meta_ephemeris_type": 0,
        "meta_classification_type": "U",
        "meta_norad_cat_id": 66537,
        "meta_element_set_no": 999,
        "meta_rev_at_epoch": 371,
        "meta_bstar": -0.015091,
        "meta_mean_motion_dot": -0.01834073,
        "meta_mean_motion_ddot": 0,
        "tle_line1": "1 66537U 25265X   25338.75002315 -.01834073  00000+0 -15091-1 0  9995",
        "tle_line2": "2 66537  43.0004 101.1605 0001519 280.9947  33.7920 15.72752991  3712"
      },
      "geometry": {
        "type": "Point",
        "coordinates": [
          -73.28317376678379,
          -6.440831312815292
        ]
      }
    },
    {
      "type": "Feature",
      "properties": {
        "norad_id": 66538,
        "name": "STARLINK-35577",
        "group": "last-30-days",
        "lat": -7.736763136728655,
        "lon": -71.86319241476315,
        "alt_km": 354.6422674731375,
        "timestamp": "2025-12-04T23:34:04.491213+00:00",
        "meta_object_name": "STARLINK-35577",
        "meta_object_id": "2025-265Y",
        "meta_epoch": "2025-12-04T18:00:02.000160",
        "meta_mean_motion": 15.72744715,
        "meta_eccentricity": 0.0001498,
        "meta_inclination": 43.0004,
        "meta_ra_of_asc_node": 101.1554,
        "meta_arg_of_pericenter": 282.0304,
        "meta_mean_anomaly": 34.6794,
        "meta_ephemeris_type": 0,
        "meta_classification_type": "U",
        "meta_norad_cat_id": 66538,
        "meta_element_set_no": 999,
        "meta_rev_at_epoch": 371,
        "meta_bstar": -0.015018,
        "meta_mean_motion_dot": -0.01825678,
        "meta_mean_motion_ddot": 0,
        "tle_line1": "1 66538U 25265Y   25338.75002315 -.01825678  00000+0 -15018-1 0  9996",
        "tle_line2": "2 66538  43.0004 101.1554 0001498 282.0304  34.6794 15.72744715  3716"
      },
      "geometry": {
        "type": "Point",
        "coordinates": [
          -71.86319241476315,
          -7.736763136728655
        ]
      }
    },
    {
      "type": "Feature",
      "properties": {
        "norad_id": 66539,
        "name": "STARLINK-35697",
        "group": "last-30-days",
        "lat": -9.029521221243458,
        "lon": -70.43278595103783,
        "alt_km": 354.6673356213396,
        "timestamp": "2025-12-04T23:34:04.491223+00:00",
        "meta_object_name": "STARLINK-35697",
        "meta_object_id": "2025-265Z",
        "meta_epoch": "2025-12-04T18:00:02.000160",
        "meta_mean_motion": 15.72745683,
        "meta_eccentricity": 0.0001281,
        "meta_inclination": 43.0004,
        "meta_ra_of_asc_node": 101.1502,
        "meta_arg_of_pericenter": 277.6107,
        "meta_mean_anomaly": 41.0173,
        "meta_ephemeris_type": 0,
        "meta_classification_type": "U",
        "meta_norad_cat_id": 66539,
        "meta_element_set_no": 999,
        "meta_rev_at_epoch": 371,
        "meta_bstar": -0.015042,
        "meta_mean_motion_dot": -0.01828146,
        "meta_mean_motion_ddot": 0,
        "tle_line1": "1 66539U 25265Z   25338.75002315 -.01828146  00000+0 -15042-1 0  9997",
        "tle_line2": "2 66539  43.0004 101.1502 0001281 277.6107  41.0173 15.72745683  3719"
      },
      "geometry": {
        "type": "Point",
        "coordinates": [
          -70.43278595103783,
          -9.029521221243458
        ]
      }
    },
    {
      "type": "Feature",
      "properties": {
        "norad_id": 66540,
        "name": "STARLINK-35818",
        "group": "last-30-days",
        "lat": -10.309510623729286,
        "lon": -68.99927913977014,
        "alt_km": 354.9088590158508,
        "timestamp": "2025-12-04T23:34:04.491233+00:00",
        "meta_object_name": "STARLINK-35818",
        "meta_object_id": "2025-265AA",
        "meta_epoch": "2025-12-04T18:00:02.000160",
        "meta_mean_motion": 15.72743604,
        "meta_eccentricity": 0.0001643,
        "meta_inclination": 43.0002,
        "meta_ra_of_asc_node": 101.1458,
        "meta_arg_of_pericenter": 284.5709,
        "meta_mean_anomaly": 35.9723,
        "meta_ephemeris_type": 0,
        "meta_classification_type": "U",
        "meta_norad_cat_id": 66540,
        "meta_element_set_no": 999,
        "meta_rev_at_epoch": 371,
        "meta_bstar": -0.014999,
        "meta_mean_motion_dot": -0.01823762,
        "meta_mean_motion_ddot": 0,
        "tle_line1": "1 66540U 25265AA  25338.75002315 -.01823762  00000+0 -14999-1 0  9998",
        "tle_line2": "2 66540  43.0002 101.1458 0001643 284.5709  35.9723 15.72743604  3710"
      },
      "geometry": {
        "type": "Point",
        "coordinates": [
          -68.99927913977014,
          -10.309510623729286
        ]
      }
    },
    {
      "type": "Feature",
      "properties": {
        "norad_id": 66541,
        "name": "STARLINK-35796",
        "group": "last-30-days",
        "lat": -11.588208766353354,
        "lon": -67.54877714386693,
        "alt_km": 354.9691865144541,
        "timestamp": "2025-12-04T23:34:04.491243+00:00",
        "meta_object_name": "STARLINK-35796",
        "meta_object_id": "2025-265AB",
        "meta_epoch": "2025-12-04T18:00:02.000160",
        "meta_mean_motion": 15.7274753,
        "meta_eccentricity": 0.0001592,
        "meta_inclination": 43.0002,
        "meta_ra_of_asc_node": 101.1409,
        "meta_arg_of_pericenter": 283.1172,
        "meta_mean_anomaly": 39.3414,
        "meta_ephemeris_type": 0,
        "meta_classification_type": "U",
        "meta_norad_cat_id": 66541,
        "meta_element_set_no": 999,
        "meta_rev_at_epoch": 371,
        "meta_bstar": -0.015041,
        "meta_mean_motion_dot": -0.01828392,
        "meta_mean_motion_ddot": 0,
        "tle_line1": "1 66541U 25265AB  25338.75002315 -.01828392  00000+0 -15041-1 0  9992",
        "tle_line2": "2 66541  43.0002 101.1409 0001592 283.1172  39.3414 15.72747530  3716"
      },
      "geometry": {
        "type": "Point",
        "coordinates": [
          -67.54877714386693,
          -11.588208766353354
        ]
      }
    },
    {
      "type": "Feature",
      "properties": {
        "norad_id": 66542,
        "name": "STARLINK-35833",
        "group": "last-30-days",
        "lat": -12.861991317970988,
        "lon": -66.08164907017587,
        "alt_km": 355.02175598577105,
        "timestamp": "2025-12-04T23:34:04.491253+00:00",
        "meta_object_name": "STARLINK-35833",
        "meta_object_id": "2025-265AC",
        "meta_epoch": "2025-12-04T18:00:02.000160",
        "meta_mean_motion": 15.72748156,
        "meta_eccentricity": 0.0001263,
        "meta_inclination": 43.0003,
        "meta_ra_of_asc_node": 101.1365,
        "meta_arg_of_pericenter": 279.9959,
        "meta_mean_anomaly": 44.3806,
        "meta_ephemeris_type": 0,
        "meta_classification_type": "U",
        "meta_norad_cat_id": 66542,
        "meta_element_set_no": 999,
        "meta_rev_at_epoch": 371,
        "meta_bstar": -0.015061,
        "meta_mean_motion_dot": -0.01830271,
        "meta_mean_motion_ddot": 0,
        "tle_line1": "1 66542U 25265AC  25338.75002315 -.01830271  00000+0 -15061-1 0  9994",
        "tle_line2": "2 66542  43.0003 101.1365 0001263 279.9959  44.3806 15.72748156  3716"
      },
      "geometry": {
        "type": "Point",
        "coordinates": [
          -66.08164907017587,
          -12.861991317970988
        ]
      }
    },
    {
      "type": "Feature",
      "properties": {
        "norad_id": 66543,
        "name": "STARLINK-35315",
        "group": "last-30-days",
        "lat": -14.121224187076576,
        "lon": -64.60797647462581,
        "alt_km": 355.20876212026724,
        "timestamp": "2025-12-04T23:34:04.491273+00:00",
        "meta_object_name": "STARLINK-35315",
        "meta_object_id": "2025-265AD",
        "meta_epoch": "2025-12-04T18:00:02.000160",
        "meta_mean_motion": 15.72744577,
        "meta_eccentricity": 0.0001527,
        "meta_inclination": 43.0002,
        "meta_ra_of_asc_node": 101.131,
        "meta_arg_of_pericenter": 285.5858,
        "meta_mean_anomaly": 40.7079,
        "meta_ephemeris_type": 0,
        "meta_classification_type": "U",
        "meta_norad_cat_id": 66543,
        "meta_element_set_no": 999,
        "meta_rev_at_epoch": 360,
        "meta_bstar": -0.015008,
        "meta_mean_motion_dot": -0.0182465,
        "meta_mean_motion_ddot": 0,
        "tle_line1": "1 66543U 25265AD  25338.75002315 -.01824650  00000+0 -15008-1 0  9990",
        "tle_line2": "2 66543  43.0002 101.1310 0001527 285.5858  40.7079 15.72744577  3603"
      },
      "geometry": {
        "type": "Point",
        "coordinates": [
          -64.60797647462581,
          -14.121224187076576
        ]
      }
    }
  ]
}